[{"CCSDS_OMM_VERS":"2.0","COMMENT":"GENERATED VIA SPACE-TRACK.ORG API","CREATION_DATE":"2019-11-20T22:40:14","ORIGINATOR":"18 SPCS","OBJECT_NAME":"STARLINK-1024","OBJECT_ID":"2019-074S","CENTER_NAME":"EARTH","REF_FRAME":"TEME","TIME_SYSTEM":"UTC","MEAN_ELEMENT_THEORY":"SGP4","EPOCH":"2019-11-20T22:00:01.999584","MEAN_MOTION":"15.77898677","ECCENTRICITY":"0.00033190","INCLINATION":"53.0049","RA_OF_ASC_NODE":"124.3832","ARG_OF_PERICENTER":"275.9309","MEAN_ANOMALY":"343.5597","EPHEMERIS_TYPE":"0","CLASSIFICATION_TYPE":"U","NORAD_CAT_ID":"44729","ELEMENT_SET_NO":"999","REV_AT_EPOCH":"148","BSTAR":"0.00021083000000","MEAN_MOTION_DOT":"0.00035849","MEAN_MOTION_DDOT":"0.0000000000000","SEMIMAJOR_AXIS":"6714.532","PERIOD":"91.260","APOAPSIS":"338.625","PERIAPSIS":"334.168","OBJECT_TYPE":"PAYLOAD","RCS_SIZE":null,"COUNTRY_CODE":"US","LAUNCH_DATE":"2019-11-11","SITE":"AFETR","DECAY_DATE":null,"FILE":"2654217","GP_ID":"143340594","TLE_LINE0":"0 STARLINK-1024","TLE_LINE1":"1 44729U 19074S   19324.91668981  .00035849  00000-0  21083-3 0  9990","TLE_LINE2":"2 44729  53.0049 124.3832 0003319 275.9309 343.5597 15.77898677  1487"},{"CCSDS_OMM_VERS":"2.0","COMMENT":"GENERATED VIA SPACE-TRACK.ORG API","CREATION_DATE":"2019-11-21T06:40:14","ORIGINATOR":"18 SPCS","OBJECT_NAME":"STARLINK-1024","OBJECT_ID":"2019-074S","CENTER_NAME":"EARTH","REF_FRAME":"TEME","TIME_SYSTEM":"UTC","MEAN_ELEMENT_THEORY":"SGP4","EPOCH":"2019-11-21T06:00:00.999648","MEAN_MOTION":"15.77162624","ECCENTRICITY":"0.00023060","INCLINATION":"53.0069","RA_OF_ASC_NODE":"122.7130","ARG_OF_PERICENTER":"223.0239","MEAN_ANOMALY":"130.8176","EPHEMERIS_TYPE":"0","CLASSIFICATION_TYPE":"U","NORAD_CAT_ID":"44729","ELEMENT_SET_NO":"999","REV_AT_EPOCH":"153","BSTAR":"0.00009686200000","MEAN_MOTION_DOT":"0.00015534","MEAN_MOTION_DDOT":"0.0000000000000","SEMIMAJOR_AXIS":"6716.621","PERIOD":"91.303","APOAPSIS":"340.035","PERIAPSIS":"336.937","OBJECT_TYPE":"PAYLOAD","RCS_SIZE":null,"COUNTRY_CODE":"US","LAUNCH_DATE":"2019-11-11","SITE":"AFETR","DECAY_DATE":null,"FILE":"2654412","GP_ID":"143383112","TLE_LINE0":"0 STARLINK-1024","TLE_LINE1":"1 44729U 19074S   19325.25001157  .00015534  00000-0  96862-4 0  9991","TLE_LINE2":"2 44729  53.0069 122.7130 0002306 223.0239 130.8176 15.77162624  1535"},{"CCSDS_OMM_VERS":"2.0","COMMENT":"GENERATED VIA SPACE-TRACK.ORG API","CREATION_DATE":"2019-11-21T12:30:17","ORIGINATOR":"18 SPCS","OBJECT_NAME":"STARLINK-1024","OBJECT_ID":"2019-074S","CENTER_NAME":"EARTH","REF_FRAME":"TEME","TIME_SYSTEM":"UTC","MEAN_ELEMENT_THEORY":"SGP4","EPOCH":"2019-11-21T12:00:00.999648","MEAN_MOTION":"15.76660766","ECCENTRICITY":"0.00035000","INCLINATION":"53.0063","RA_OF_ASC_NODE":"121.4696","ARG_OF_PERICENTER":"314.5524","MEAN_ANOMALY":"19.5332","EPHEMERIS_TYPE":"0","CLASSIFICATION_TYPE":"U","NORAD_CAT_ID":"44729","ELEMENT_SET_NO":"999","REV_AT_EPOCH":"157","BSTAR":"-0.00019879000000","MEAN_MOTION_DOT":"-0.00032988","MEAN_MOTION_DDOT":"0.0000000000000","SEMIMAJOR_AXIS":"6718.046","PERIOD":"91.332","APOAPSIS":"342.262","PERIAPSIS":"337.560","OBJECT_TYPE":"PAYLOAD","RCS_SIZE":null,"COUNTRY_CODE":"US","LAUNCH_DATE":"2019-11-11","SITE":"AFETR","DECAY_DATE":null,"FILE":"2654546","GP_ID":"143386256","TLE_LINE0":"0 STARLINK-1024","TLE_LINE1":"1 44729U 19074S   19325.50001157 -.00032988  00000-0 -19879-3 0  9995","TLE_LINE2":"2 44729  53.0063 121.4696 0003500 314.5524  19.5332 15.76660766  1572"},{"CCSDS_OMM_VERS":"2.0","COMMENT":"GENERATED VIA SPACE-TRACK.ORG API","CREATION_DATE":"2019-11-21T21:30:17","ORIGINATOR":"18 SPCS","OBJECT_NAME":"STARLINK-1024","OBJECT_ID":"2019-074S","CENTER_NAME":"EARTH","REF_FRAME":"TEME","TIME_SYSTEM":"UTC","MEAN_ELEMENT_THEORY":"SGP4","EPOCH":"2019-11-21T20:00:01.000224","MEAN_MOTION":"15.75939062","ECCENTRICITY":"0.00047960","INCLINATION":"53.0055","RA_OF_ASC_NODE":"119.7993","ARG_OF_PERICENTER":"256.4042","MEAN_ANOMALY":"170.6187","EPHEMERIS_TYPE":"0","CLASSIFICATION_TYPE":"U","NORAD_CAT_ID":"44729","ELEMENT_SET_NO":"999","REV_AT_EPOCH":"162","BSTAR":"-0.00025802000000","MEAN_MOTION_DOT":"-0.00041277","MEAN_MOTION_DDOT":"0.0000000000000","SEMIMAJOR_AXIS":"6720.097","PERIOD":"91.374","APOAPSIS":"345.185","PERIAPSIS":"338.739","OBJECT_TYPE":"PAYLOAD","RCS_SIZE":null,"COUNTRY_CODE":"US","LAUNCH_DATE":"2019-11-11","SITE":"AFETR","DECAY_DATE":null,"FILE":"2654732","GP_ID":"143409693","TLE_LINE0":"0 STARLINK-1024","TLE_LINE1":"1 44729U 19074S   19325.83334491 -.00041277  00000-0 -25802-3 0  9995","TLE_LINE2":"2 44729  53.0055 119.7993 0004796 256.4042 170.6187 15.75939062  1620"},{"CCSDS_OMM_VERS":"2.0","COMMENT":"GENERATED VIA SPACE-TRACK.ORG API","CREATION_DATE":"2019-11-21T22:30:14","ORIGINATOR":"18 SPCS","OBJECT_NAME":"STARLINK-1024","OBJECT_ID":"2019-074S","CENTER_NAME":"EARTH","REF_FRAME":"TEME","TIME_SYSTEM":"UTC","MEAN_ELEMENT_THEORY":"SGP4","EPOCH":"2019-11-21T22:00:00.999936","MEAN_MOTION":"15.75787280","ECCENTRICITY":"0.00040750","INCLINATION":"53.0058","RA_OF_ASC_NODE":"119.3831","ARG_OF_PERICENTER":"248.3634","MEAN_ANOMALY":"291.7568","EPHEMERIS_TYPE":"0","CLASSIFICATION_TYPE":"U","NORAD_CAT_ID":"44729","ELEMENT_SET_NO":"999","REV_AT_EPOCH":"164","BSTAR":"-0.00033237000000","MEAN_MOTION_DOT":"-0.00052552","MEAN_MOTION_DDOT":"0.0000000000000","SEMIMAJOR_AXIS":"6720.528","PERIOD":"91.382","APOAPSIS":"345.132","PERIAPSIS":"339.655","OBJECT_TYPE":"PAYLOAD","RCS_SIZE":null,"COUNTRY_CODE":"US","LAUNCH_DATE":"2019-11-11","SITE":"AFETR","DECAY_DATE":null,"FILE":"2654833","GP_ID":"143412087","TLE_LINE0":"0 STARLINK-1024","TLE_LINE1":"1 44729U 19074S   19325.91667824 -.00052552  00000-0 -33237-3 0  9992","TLE_LINE2":"2 44729  53.0058 119.3831 0004075 248.3634 291.7568 15.75787280  1640"},{"CCSDS_OMM_VERS":"2.0","COMMENT":"GENERATED VIA SPACE-TRACK.ORG API","CREATION_DATE":"2019-11-22T06:30:16","ORIGINATOR":"18 SPCS","OBJECT_NAME":"STARLINK-1024","OBJECT_ID":"2019-074S","CENTER_NAME":"EARTH","REF_FRAME":"TEME","TIME_SYSTEM":"UTC","MEAN_ELEMENT_THEORY":"SGP4","EPOCH":"2019-11-22T06:00:00.999648","MEAN_MOTION":"15.75080863","ECCENTRICITY":"0.00041530","INCLINATION":"53.0064","RA_OF_ASC_NODE":"117.7188","ARG_OF_PERICENTER":"293.9716","MEAN_ANOMALY":"338.0341","EPHEMERIS_TYPE":"0","CLASSIFICATION_TYPE":"U","NORAD_CAT_ID":"44729","ELEMENT_SET_NO":"999","REV_AT_EPOCH":"169","BSTAR":"0.00042926000000","MEAN_MOTION_DOT":"0.00065250","MEAN_MOTION_DDOT":"0.0000000000000","SEMIMAJOR_AXIS":"6722.538","PERIOD":"91.423","APOAPSIS":"347.194","PERIAPSIS":"341.611","OBJECT_TYPE":"PAYLOAD","RCS_SIZE":null,"COUNTRY_CODE":"US","LAUNCH_DATE":"2019-11-11","SITE":"AFETR","DECAY_DATE":null,"FILE":"2654932","GP_ID":"143433113","TLE_LINE0":"0 STARLINK-1024","TLE_LINE1":"1 44729U 19074S   19326.25001157  .00065250  00000-0  42926-3 0  9993","TLE_LINE2":"2 44729  53.0064 117.7188 0004153 293.9716 338.0341 15.75080863  1690"},{"CCSDS_OMM_VERS":"2.0","COMMENT":"GENERATED VIA SPACE-TRACK.ORG API","CREATION_DATE":"2019-11-22T14:40:16","ORIGINATOR":"18 SPCS","OBJECT_NAME":"STARLINK-1024","OBJECT_ID":"2019-074S","CENTER_NAME":"EARTH","REF_FRAME":"TEME","TIME_SYSTEM":"UTC","MEAN_ELEMENT_THEORY":"SGP4","EPOCH":"2019-11-22T14:00:01.000224","MEAN_MOTION":"15.74372949","ECCENTRICITY":"0.00018600","INCLINATION":"53.0062","RA_OF_ASC_NODE":"116.0641","ARG_OF_PERICENTER":"339.7154","MEAN_ANOMALY":"23.3405","EPHEMERIS_TYPE":"0","CLASSIFICATION_TYPE":"U","NORAD_CAT_ID":"44729","ELEMENT_SET_NO":"999","REV_AT_EPOCH":"174","BSTAR":"0.00162950000000","MEAN_MOTION_DOT":"0.00247146","MEAN_MOTION_DDOT":"0.0000000000000","SEMIMAJOR_AXIS":"6724.553","PERIOD":"91.464","APOAPSIS":"347.668","PERIAPSIS":"345.167","OBJECT_TYPE":"PAYLOAD","RCS_SIZE":null,"COUNTRY_CODE":"US","LAUNCH_DATE":"2019-11-11","SITE":"AFETR","DECAY_DATE":null,"FILE":"2655115","GP_ID":"143437306","TLE_LINE0":"0 STARLINK-1024","TLE_LINE1":"1 44729U 19074S   19326.58334491  .00247146  00000-0  16295-2 0  9994","TLE_LINE2":"2 44729  53.0062 116.0641 0001860 339.7154  23.3405 15.74372949  1740"},{"CCSDS_OMM_VERS":"2.0","COMMENT":"GENERATED VIA SPACE-TRACK.ORG API","CREATION_DATE":"2019-11-22T22:30:15","ORIGINATOR":"18 SPCS","OBJECT_NAME":"STARLINK-1024","OBJECT_ID":"2019-074S","CENTER_NAME":"EARTH","REF_FRAME":"TEME","TIME_SYSTEM":"UTC","MEAN_ELEMENT_THEORY":"SGP4","EPOCH":"2019-11-22T22:00:00.999936","MEAN_MOTION":"15.73730755","ECCENTRICITY":"0.00019550","INCLINATION":"53.0063","RA_OF_ASC_NODE":"114.3970","ARG_OF_PERICENTER":"257.7899","MEAN_ANOMALY":"195.5224","EPHEMERIS_TYPE":"0","CLASSIFICATION_TYPE":"U","NORAD_CAT_ID":"44729","ELEMENT_SET_NO":"999","REV_AT_EPOCH":"179","BSTAR":"-0.00072812000000","MEAN_MOTION_DOT":"-0.00103922","MEAN_MOTION_DDOT":"0.0000000000000","SEMIMAJOR_AXIS":"6726.382","PERIOD":"91.502","APOAPSIS":"349.562","PERIAPSIS":"346.932","OBJECT_TYPE":"PAYLOAD","RCS_SIZE":null,"COUNTRY_CODE":"US","LAUNCH_DATE":"2019-11-11","SITE":"AFETR","DECAY_DATE":null,"FILE":"2655304","GP_ID":"143461013","TLE_LINE0":"0 STARLINK-1024","TLE_LINE1":"1 44729U 19074S   19326.91667824 -.00103922  00000-0 -72812-3 0  9993","TLE_LINE2":"2 44729  53.0063 114.3970 0001955 257.7899 195.5224 15.73730755  1795"}]